{"type": "FeatureCollection", "features": [ {"type": "Feature", "properties": {"norad_id": 37216, "name": "COSMO-SKYMED 4", "group": "resource", "lat": -28.504275504546364, "lon": 177.4609020765935, "alt_km": 628.7237777140772, "timestamp": "2025-12-17T21:39:45.365544+00:00", "meta": {"OBJECT_NAME": "COSMO-SKYMED 4", "OBJECT_ID": "2010-060A", "EPOCH": "2025-12-17T15:18:40.474944", "MEAN_MOTION": 14.82150211, "ECCENTRICITY": 0.00013759, "INCLINATION": 97.8801, "RA_OF_ASC_NODE": 172.8869, "ARG_OF_PERICENTER": 80.2072, "MEAN_ANOMALY": 279.9296, "EPHEMERIS_TYPE": 0, "CLASSIFICATION_TYPE": "U", "NORAD_CAT_ID": 37216, "ELEMENT_SET_NO": 999, "REV_AT_EPOCH": 81767, "BSTAR": 3.1080477e-05, "MEAN_MOTION_DOT": 1.95e-06, "MEAN_MOTION_DDOT": 0}, "tle": {"line1": "1 37216U 10060A   25351.63796846  .00000195  00000+0  31080-4 0  9991", "line2": "2 37216  97.8801 172.8869 0001375  80.2072 279.9296 14.82150211817678"}}, "geometry": {"type": "Point", "coordinates": [177.4609020765935, -28.504275504546364]}}, {"type": "Feature", "properties": {"norad_id": 37387, "name": "RESOURCESAT-2", "group": "resource", "lat": -70.68676851137525, "lon": -150.76017447771255, "alt_km": 830.428316310381, "timestamp": "2025-12-17T21:39:45.365553+00:00", "meta": {"OBJECT_NAME": "RESOURCESAT-2", "OBJECT_ID": "2011-015A", "EPOCH": "2025-12-17T15:24:35.308512", "MEAN_MOTION": 14.21599214, "ECCENTRICITY": 0.00062093, "INCLINATION": 98.7873, "RA_OF_ASC_NODE": 55.1718, "ARG_OF_PERICENTER": 29.5889, "MEAN_ANOMALY": 330.5638, "EPHEMERIS_TYPE": 0, "CLASSIFICATION_TYPE": "U", "NORAD_CAT_ID": 37387, "ELEMENT_SET_NO": 999, "REV_AT_EPOCH": 76038, "BSTAR": 7.2847336e-05, "MEAN_MOTION_DOT": 1.15e-06, "MEAN_MOTION_DDOT": 0}, "tle": {"line1": "1 37387U 11015A   25351.64207533  .00000115  00000+0  72847-4 0  9990", "line2": "2 37387  98.7873  55.1718 0006209  29.5889 330.5638 14.21599214760387"}}, "geometry": {"type": "Point", "coordinates": [-150.76017447771255, -70.68676851137525]}}, {"type": "Feature", "properties": {"norad_id": 37781, "name": "HAIYANG-2A", "group": "resource", "lat": -46.33761532912464, "lon": 162.83066746642967, "alt_km": 975.7670171068803, "timestamp": "2025-12-17T21:39:45.365563+00:00", "meta": {"OBJECT_NAME": "HAIYANG-2A", "OBJECT_ID": "2011-043A", "EPOCH": "2025-12-17T15:20:24.944640", "MEAN_MOTION": 13.78835074, "ECCENTRICITY": 0.00016399, "INCLINATION": 99.3375, "RA_OF_ASC_NODE": 352.4985, "ARG_OF_PERICENTER": 76.0696, "MEAN_ANOMALY": 284.0638, "EPHEMERIS_TYPE": 0, "CLASSIFICATION_TYPE": "U", "NORAD_CAT_ID": 37781, "ELEMENT_SET_NO": 999, "REV_AT_EPOCH": 72166, "BSTAR": -0.00011147799, "MEAN_MOTION_DOT": -1.58e-06, "MEAN_MOTION_DDOT": 0}, "tle": {"line1": "1 37781U 11043A   25351.63917760 -.00000158  00000+0 -11148-3 0  9993", "line2": "2 37781  99.3375 352.4985 0001639  76.0696 284.0638 13.78835074721662"}}, "geometry": {"type": "Point", "coordinates": [162.83066746642967, -46.33761532912464]}}, {"type": "Feature", "properties": {"norad_id": 37791, "name": "RASAT", "group": "resource", "lat": -16.715110927232384, "lon": -101.35684087891181, "alt_km": 685.508646064739, "timestamp": "2025-12-17T21:39:45.365572+00:00", "meta": {"OBJECT_NAME": "RASAT", "OBJECT_ID": "2011-044D", "EPOCH": "2025-12-17T12:50:57.156000", "MEAN_MOTION": 14.67916865, "ECCENTRICITY": 0.002171, "INCLINATION": 98.0648, "RA_OF_ASC_NODE": 80.7218, "ARG_OF_PERICENTER": 50.4614, "MEAN_ANOMALY": 6.7379, "EPHEMERIS_TYPE": 0, "CLASSIFICATION_TYPE": "U", "NORAD_CAT_ID": 37791, "ELEMENT_SET_NO": 999, "REV_AT_EPOCH": 76653, "BSTAR": 0.00010440836, "MEAN_MOTION_DOT": 5.5e-06, "MEAN_MOTION_DDOT": 0}, "tle": {"line1": "1 37791U 11044D   25351.53538375  .00000550  00000+0  10441-3 0  9994", "line2": "2 37791  98.0648  80.7218 0021710  50.4614   6.7379 14.67916865766533"}}, "geometry": {"type": "Point", "coordinates": [-101.35684087891181, -16.715110927232384]}}, {"type": "Feature", "properties": {"norad_id": 37841, "name": "SRMSAT", "group": "resource", "lat": 19.914507175387755, "lon": 162.6562306765634, "alt_km": 846.8737434209015, "timestamp": "2025-12-17T21:39:45.365582+00:00", "meta": {"OBJECT_NAME": "SRMSAT", "OBJECT_ID": "2011-058D", "EPOCH": "2025-12-17T14:36:14.562432", "MEAN_MOTION": 14.11513105, "ECCENTRICITY": 0.0011885, "INCLINATION": 19.972, "RA_OF_ASC_NODE": 78.4836, "ARG_OF_PERICENTER": 7.0463, "MEAN_ANOMALY": 21.298, "EPHEMERIS_TYPE": 0, "CLASSIFICATION_TYPE": "U", "NORAD_CAT_ID": 37841, "ELEMENT_SET_NO": 999, "REV_AT_EPOCH": 73213, "BSTAR": 7.3050656e-05, "MEAN_MOTION_DOT": 3.99e-06, "MEAN_MOTION_DDOT": 0}, "tle": {"line1": "1 37841U 11058D   25351.60850188  .00000399  00000+0  73051-4 0  9990", "line2": "2 37841  19.9720  78.4836 0011885   7.0463  21.2980 14.11513105732132"}}, "geometry": {"type": "Point", "coordinates": [162.6562306765634, 19.914507175387755]}}, {"type": "Feature", "properties": {"norad_id": 38012, "name": "PLEIADES 1A", "group": "resource", "lat": 1.5653568004650071, "lon": -115.1832230246146, "alt_km": 700.837818854744, "timestamp": "2025-12-17T21:39:45.365591+00:00", "meta": {"OBJECT_NAME": "PLEIADES 1A", "OBJECT_ID": "2011-076F", "EPOCH": "2025-12-17T16:38:44.323584", "MEAN_MOTION": 14.58566247, "ECCENTRICITY": 0.00011929, "INCLINATION": 98.1823, "RA_OF_ASC_NODE": 64.3857, "ARG_OF_PERICENTER": 71.4186, "MEAN_ANOMALY": 89.8835, "EPHEMERIS_TYPE": 0, "CLASSIFICATION_TYPE": "U", "NORAD_CAT_ID": 38012, "ELEMENT_SET_NO": 999, "REV_AT_EPOCH": 74553, "BSTAR": 7.3856826e-05, "MEAN_MOTION_DOT": 2.98e-06, "MEAN_MOTION_DDOT": 0}, "tle": {"line1": "1 38012U 11076F   25351.69356856  .00000298  00000+0  73857-4 0  9995", "line2": "2 38012  98.1823  64.3857 0001192  71.4186  89.8835 14.58566247745533"}}, "geometry": {"type": "Point", "coordinates": [-115.1832230246146, 1.5653568004650071]}}, {"type": "Feature", "properties": {"norad_id": 38038, "name": "ZIYUAN 1-02C (ZY 1-02C)", "group": "resource", "lat": 63.38232913735695, "lon": 40.6016745056433, "alt_km": 756.2237847108672, "timestamp": "2025-12-17T21:39:45.365601+00:00", "meta": {"OBJECT_NAME": "ZIYUAN 1-02C (ZY 1-02C)", "OBJECT_ID": "2011-079A", "EPOCH": "2025-12-17T15:24:23.203872", "MEAN_MOTION": 14.38017831, "ECCENTRICITY": 0.000736, "INCLINATION": 98.4333, "RA_OF_ASC_NODE": 57.5654, "ARG_OF_PERICENTER": 125.5153, "MEAN_ANOMALY": 30.5759, "EPHEMERIS_TYPE": 0, "CLASSIFICATION_TYPE": "U", "NORAD_CAT_ID": 38038, "ELEMENT_SET_NO": 999, "REV_AT_EPOCH": 73311, "BSTAR": 0.0001494138, "MEAN_MOTION_DOT": 4.09e-06, "MEAN_MOTION_DDOT": 0}, "tle": {"line1": "1 38038U 11079A   25351.64193523  .00000409  00000+0  14941-3 0  9993", "line2": "2 38038  98.4333  57.5654 0007360 125.5153  30.5759 14.38017831733114"}}, "geometry": {"type": "Point", "coordinates": [40.6016745056433, 63.38232913735695]}}, {"type": "Feature", "properties": {"norad_id": 38338, "name": "ARIRANG-3 (KOMPSAT-3)", "group": "resource", "lat": 45.023113847024455, "lon": 134.96579800318668, "alt_km": 687.3039106009301, "timestamp": "2025-12-17T21:39:45.365610+00:00", "meta": {"OBJECT_NAME": "ARIRANG-3 (KOMPSAT-3)", "OBJECT_ID": "2012-025B", "EPOCH": "2025-12-17T14:28:43.368672", "MEAN_MOTION": 14.61719232, "ECCENTRICITY": 0.0005049, "INCLINATION": 98.3328, "RA_OF_ASC_NODE": 306.2294, "ARG_OF_PERICENTER": 322.1174, "MEAN_ANOMALY": 37.9671, "EPHEMERIS_TYPE": 0, "CLASSIFICATION_TYPE": "U", "NORAD_CAT_ID": 38338, "ELEMENT_SET_NO": 999, "REV_AT_EPOCH": 72481, "BSTAR": 0.00010510873, "MEAN_MOTION_DOT": 4.75e-06, "MEAN_MOTION_DDOT": 0}, "tle": {"line1": "1 38338U 12025B   25351.60327973  .00000475  00000+0  10511-3 0  9994", "line2": "2 38338  98.3328 306.2294 0005049 322.1174  37.9671 14.61719232724815"}}, "geometry": {"type": "Point", "coordinates": [134.96579800318668, 45.023113847024455]}}, {"type": "Feature", "properties": {"norad_id": 38709, "name": "EXACTVIEW-1 (ADS-1B)", "group": "resource", "lat": 10.613443351834134, "lon": -77.90426863993946, "alt_km": 817.6042001482483, "timestamp": "2025-12-17T21:39:45.365619+00:00", "meta": {"OBJECT_NAME": "EXACTVIEW-1 (ADS-1B)", "OBJECT_ID": "2012-039C", "EPOCH": "2025-12-17T14:07:48.052704", "MEAN_MOTION": 14.24909909, "ECCENTRICITY": 0.0010425, "INCLINATION": 98.9638, "RA_OF_ASC_NODE": 100.0805, "ARG_OF_PERICENTER": 339.9535, "MEAN_ANOMALY": 20.1233, "EPHEMERIS_TYPE": 0, "CLASSIFICATION_TYPE": "U", "NORAD_CAT_ID": 38709, "ELEMENT_SET_NO": 999, "REV_AT_EPOCH": 69684, "BSTAR": 6.6505089e-05, "MEAN_MOTION_DOT": 1.09e-06, "MEAN_MOTION_DDOT": 0}, "tle": {"line1": "1 38709U 12039C   25351.58875061  .00000109  00000+0  66505-4 0  9993", "line2": "2 38709  98.9638 100.0805 0010425 339.9535  20.1233 14.24909909696846"}}, "geometry": {"type": "Point", "coordinates": [-77.90426863993946, 10.613443351834134]}}, {"type": "Feature", "properties": {"norad_id": 38755, "name": "SPOT 6", "group": "resource", "lat": 75.19551371428417, "lon": -90.54111295893418, "alt_km": 689.8789471129758, "timestamp": "2025-12-17T21:39:45.365628+00:00", "meta": {"OBJECT_NAME": "SPOT 6", "OBJECT_ID": "2012-047A", "EPOCH": "2025-12-17T17:54:07.665120", "MEAN_MOTION": 14.58536963, "ECCENTRICITY": 0.0001309, "INCLINATION": 98.1569, "RA_OF_ASC_NODE": 56.4385, "ARG_OF_PERICENTER": 82.6881, "MEAN_ANOMALY": 277.4467, "EPHEMERIS_TYPE": 0, "CLASSIFICATION_TYPE": "U", "NORAD_CAT_ID": 38755, "ELEMENT_SET_NO": 999, "REV_AT_EPOCH": 70660, "BSTAR": 6.9541e-05, "MEAN_MOTION_DOT": 2.78e-06, "MEAN_MOTION_DDOT": 0}, "tle": {"line1": "1 38755U 12047A   25351.74592205  .00000278  00000+0  69541-4 0  9997", "line2": "2 38755  98.1569  56.4385 0001309  82.6881 277.4467 14.58536963706601"}}, "geometry": {"type": "Point", "coordinates": [-90.54111295893418, 75.19551371428417]}}]}